STARLINK-33972          
1 63893U 25095D   26176.68553261  .00028003  00000+0  10217-2 0  9993
2 63893  43.0031 286.3815 0001576 272.9282  87.1389 15.27630138 64301
STARLINK-34134          
1 63899U 25095K   26176.68938952  .00018750  00000+0  68864-3 0  9993
2 63899  43.0038 286.4077 0001674 262.3915  97.6747 15.27604152 64301
STARLINK-34106          
1 63907U 25095T   26176.72265167  .00025797  00000+0  94282-3 0  9991
2 63907  43.0005 285.7879 0001636 278.7733  81.2933 15.27610293 64303
STARLINK-34144          
1 63958U 25099G   26176.76760069  .00028029  00000+0  10232-2 0  9999
2 63958  42.9981 286.0122 0001745 260.0079 100.0575 15.27612921 63865
STARLINK-33960          
1 63966U 25099Q   26176.60727904  .00027568  00000+0  10067-2 0  9995
2 63966  43.0021 286.5198 0001699 280.3580  79.7080 15.27607689 63845
STARLINK-34112          
1 63969U 25099T   26176.66238021  .00040217  00000+0  14612-2 0  9997
2 63969  43.0007 286.0695 0001746 271.6321  88.4330 15.27621752 63851
