{
  "schema": "int-temerity-real-tle-snapshot/v1",
  "source": "celestrak",
  "group": "STARLINK",
  "format": "celestrak-gp-json",
  "source_url": "https://celestrak.org/NORAD/elements/gp.php?NAME=STARLINK&FORMAT=JSON",
  "downloaded_at": "2026-06-26T09:50:33.467Z",
  "generated_at": "2026-06-26T09:50:44.363Z",
  "fingerprint": "77a8ac15",
  "shell_id": "starlink-real-43deg-490km",
  "catalog_count": 10658,
  "shell_count": 3264,
  "selected_count": 1584,
  "mean_altitude_km": 490.2,
  "mean_inclination_deg": 43.0017,
  "mean_mean_motion_rev_per_day": 15.27576648,
  "layout": {
    "planes": 72,
    "satellites_per_plane": 22,
    "selection_strategy": "largest-shell-raan-clusters-even-slot-sampling",
    "raan_cluster_threshold_deg": 1.5
  },
  "satellites": [
    {
      "satellite_id": "P58-S07",
      "norad_id": 63969,
      "satellite_name": "STARLINK-34112",
      "cospar_id": "2025-099T",
      "shell_id": "starlink-real-43deg-490km",
      "plane_id": 57,
      "slot_id": 6,
      "epoch": "2026-06-25T15:53:49.650144",
      "inclination": 43.0007,
      "raan": 286.06950000000006,
      "eccentricity": 0.0001746,
      "argument_of_perigee": 271.63210000000004,
      "mean_anomaly": 88.43299999999999,
      "mean_motion": 15.27621752,
      "bstar": 0.0014612,
      "status": "active",
      "raw_omm": {
        "OBJECT_NAME": "STARLINK-34112",
        "OBJECT_ID": "2025-099T",
        "EPOCH": "2026-06-25T15:53:49.650144",
        "MEAN_MOTION": 15.27621752,
        "ECCENTRICITY": 0.0001746,
        "INCLINATION": 43.0007,
        "RA_OF_ASC_NODE": 286.0695,
        "ARG_OF_PERICENTER": 271.6321,
        "MEAN_ANOMALY": 88.433,
        "EPHEMERIS_TYPE": 0,
        "CLASSIFICATION_TYPE": "U",
        "NORAD_CAT_ID": 63969,
        "ELEMENT_SET_NO": 999,
        "REV_AT_EPOCH": 6385,
        "BSTAR": 0.0014612,
        "MEAN_MOTION_DOT": 0.00040217,
        "MEAN_MOTION_DDOT": 0
      },
      "source": "celestrak",
      "source_url": "https://celestrak.org/NORAD/elements/gp.php?NAME=STARLINK&FORMAT=JSON",
      "catalog_fingerprint": "77a8ac15"
    },
    {
      "satellite_id": "P58-S08",
      "norad_id": 63958,
      "satellite_name": "STARLINK-34144",
      "cospar_id": "2025-099G",
      "shell_id": "starlink-real-43deg-490km",
      "plane_id": 57,
      "slot_id": 7,
      "epoch": "2026-06-25T18:25:20.698752",
      "inclination": 42.9981,
      "raan": 286.0122,
      "eccentricity": 0.0001746,
      "argument_of_perigee": 260.00790000000006,
      "mean_anomaly": 100.0575,
      "mean_motion": 15.27612921,
      "bstar": 0.0010232,
      "status": "active",
      "raw_omm": {
        "OBJECT_NAME": "STARLINK-34144",
        "OBJECT_ID": "2025-099G",
        "EPOCH": "2026-06-25T18:25:20.698752",
        "MEAN_MOTION": 15.27612921,
        "ECCENTRICITY": 0.0001746,
        "INCLINATION": 42.9981,
        "RA_OF_ASC_NODE": 286.0122,
        "ARG_OF_PERICENTER": 260.0079,
        "MEAN_ANOMALY": 100.0575,
        "EPHEMERIS_TYPE": 0,
        "CLASSIFICATION_TYPE": "U",
        "NORAD_CAT_ID": 63958,
        "ELEMENT_SET_NO": 999,
        "REV_AT_EPOCH": 6386,
        "BSTAR": 0.0010232,
        "MEAN_MOTION_DOT": 0.00028029,
        "MEAN_MOTION_DDOT": 0
      },
      "source": "celestrak",
      "source_url": "https://celestrak.org/NORAD/elements/gp.php?NAME=STARLINK&FORMAT=JSON",
      "catalog_fingerprint": "77a8ac15"
    },
    {
      "satellite_id": "P58-S09",
      "norad_id": 63966,
      "satellite_name": "STARLINK-33960",
      "cospar_id": "2025-099Q",
      "shell_id": "starlink-real-43deg-490km",
      "plane_id": 57,
      "slot_id": 8,
      "epoch": "2026-06-25T14:34:28.909056",
      "inclination": 43.0021,
      "raan": 286.51980000000003,
      "eccentricity": 0.00017,
      "argument_of_perigee": 280.35799999999995,
      "mean_anomaly": 79.70799999999997,
      "mean_motion": 15.27607689,
      "bstar": 0.0010067,
      "status": "active",
      "raw_omm": {
        "OBJECT_NAME": "STARLINK-33960",
        "OBJECT_ID": "2025-099Q",
        "EPOCH": "2026-06-25T14:34:28.909056",
        "MEAN_MOTION": 15.27607689,
        "ECCENTRICITY": 0.00017,
        "INCLINATION": 43.0021,
        "RA_OF_ASC_NODE": 286.5198,
        "ARG_OF_PERICENTER": 280.358,
        "MEAN_ANOMALY": 79.708,
        "EPHEMERIS_TYPE": 0,
        "CLASSIFICATION_TYPE": "U",
        "NORAD_CAT_ID": 63966,
        "ELEMENT_SET_NO": 999,
        "REV_AT_EPOCH": 6384,
        "BSTAR": 0.0010067,
        "MEAN_MOTION_DOT": 0.00027568,
        "MEAN_MOTION_DDOT": 0
      },
      "source": "celestrak",
      "source_url": "https://celestrak.org/NORAD/elements/gp.php?NAME=STARLINK&FORMAT=JSON",
      "catalog_fingerprint": "77a8ac15"
    },
    {
      "satellite_id": "P58-S10",
      "norad_id": 63899,
      "satellite_name": "STARLINK-34134",
      "cospar_id": "2025-095K",
      "shell_id": "starlink-real-43deg-490km",
      "plane_id": 57,
      "slot_id": 9,
      "epoch": "2026-06-25T16:32:43.253664",
      "inclination": 43.0038,
      "raan": 286.4077,
      "eccentricity": 0.0001674,
      "argument_of_perigee": 262.39149999999995,
      "mean_anomaly": 97.67470000000003,
      "mean_motion": 15.27604152,
      "bstar": 0.00068864,
      "status": "active",
      "raw_omm": {
        "OBJECT_NAME": "STARLINK-34134",
        "OBJECT_ID": "2025-095K",
        "EPOCH": "2026-06-25T16:32:43.253664",
        "MEAN_MOTION": 15.27604152,
        "ECCENTRICITY": 0.0001674,
        "INCLINATION": 43.0038,
        "RA_OF_ASC_NODE": 286.4077,
        "ARG_OF_PERICENTER": 262.3915,
        "MEAN_ANOMALY": 97.6747,
        "EPHEMERIS_TYPE": 0,
        "CLASSIFICATION_TYPE": "U",
        "NORAD_CAT_ID": 63899,
        "ELEMENT_SET_NO": 999,
        "REV_AT_EPOCH": 6430,
        "BSTAR": 0.00068864,
        "MEAN_MOTION_DOT": 0.0001875,
        "MEAN_MOTION_DDOT": 0
      },
      "source": "celestrak",
      "source_url": "https://celestrak.org/NORAD/elements/gp.php?NAME=STARLINK&FORMAT=JSON",
      "catalog_fingerprint": "77a8ac15"
    },
    {
      "satellite_id": "P58-S11",
      "norad_id": 63907,
      "satellite_name": "STARLINK-34106",
      "cospar_id": "2025-095T",
      "shell_id": "starlink-real-43deg-490km",
      "plane_id": 57,
      "slot_id": 10,
      "epoch": "2026-06-25T17:20:37.104288",
      "inclination": 43.0005,
      "raan": 285.78790000000004,
      "eccentricity": 0.0001637,
      "argument_of_perigee": 278.77330000000006,
      "mean_anomaly": 81.29329999999999,
      "mean_motion": 15.27610293,
      "bstar": 0.00094282,
      "status": "active",
      "raw_omm": {
        "OBJECT_NAME": "STARLINK-34106",
        "OBJECT_ID": "2025-095T",
        "EPOCH": "2026-06-25T17:20:37.104288",
        "MEAN_MOTION": 15.27610293,
        "ECCENTRICITY": 0.0001637,
        "INCLINATION": 43.0005,
        "RA_OF_ASC_NODE": 285.7879,
        "ARG_OF_PERICENTER": 278.7733,
        "MEAN_ANOMALY": 81.2933,
        "EPHEMERIS_TYPE": 0,
        "CLASSIFICATION_TYPE": "U",
        "NORAD_CAT_ID": 63907,
        "ELEMENT_SET_NO": 999,
        "REV_AT_EPOCH": 6430,
        "BSTAR": 0.00094282,
        "MEAN_MOTION_DOT": 0.00025797,
        "MEAN_MOTION_DDOT": 0
      },
      "source": "celestrak",
      "source_url": "https://celestrak.org/NORAD/elements/gp.php?NAME=STARLINK&FORMAT=JSON",
      "catalog_fingerprint": "77a8ac15"
    },
    {
      "satellite_id": "P58-S12",
      "norad_id": 63893,
      "satellite_name": "STARLINK-33972",
      "cospar_id": "2025-095D",
      "shell_id": "starlink-real-43deg-490km",
      "plane_id": 57,
      "slot_id": 11,
      "epoch": "2026-06-25T16:27:10.016640",
      "inclination": 43.0031,
      "raan": 286.38149999999996,
      "eccentricity": 0.0001576,
      "argument_of_perigee": 272.92820000000006,
      "mean_anomaly": 87.13890000000004,
      "mean_motion": 15.27630138,
      "bstar": 0.0010217,
      "status": "active",
      "raw_omm": {
        "OBJECT_NAME": "STARLINK-33972",
        "OBJECT_ID": "2025-095D",
        "EPOCH": "2026-06-25T16:27:10.016640",
        "MEAN_MOTION": 15.27630138,
        "ECCENTRICITY": 0.0001576,
        "INCLINATION": 43.0031,
        "RA_OF_ASC_NODE": 286.3815,
        "ARG_OF_PERICENTER": 272.9282,
        "MEAN_ANOMALY": 87.1389,
        "EPHEMERIS_TYPE": 0,
        "CLASSIFICATION_TYPE": "U",
        "NORAD_CAT_ID": 63893,
        "ELEMENT_SET_NO": 999,
        "REV_AT_EPOCH": 6430,
        "BSTAR": 0.0010217,
        "MEAN_MOTION_DOT": 0.00028003,
        "MEAN_MOTION_DDOT": 0
      },
      "source": "celestrak",
      "source_url": "https://celestrak.org/NORAD/elements/gp.php?NAME=STARLINK&FORMAT=JSON",
      "catalog_fingerprint": "77a8ac15"
    }
  ]
}